ISS (ZARYA)             
1 25544U 98067A   25360.53473604  .00013978  00000+0  25382-3 0  9998
2 25544  51.6320  74.1581 0003230 305.5588  54.5099 15.49844261544994
CSS (TIANHE)            
1 48274U 21035A   25360.22743832  .00019151  00000+0  23602-3 0  9995
2 48274  41.4680 294.7909 0008517 149.5046 210.6289 15.59708409266134
ISS (NAUKA)             
1 49044U 21066A   25360.53473604  .00013978  00000+0  25382-3 0  9994
2 49044  51.6320  74.1581 0003230 305.5588  54.5099 15.49844261230447
FREGAT DEB              
1 49271U 11037PF  25360.49630090  .00006366  00000+0  14302-1 0  9993
2 49271  51.6519 158.7680 0864537 253.7501  96.6634 12.34586922203633
CSS (WENTIAN)           
1 53239U 22085A   25360.22743832  .00019151  00000+0  23602-3 0  9998
2 53239  41.4680 294.7909 0008517 149.5046 210.6289 15.59708409173846
CSS (MENGTIAN)          
1 54216U 22143A   25360.22743832  .00019151  00000+0  23602-3 0  9999
2 54216  41.4680 294.7909 0008517 149.5046 210.6289 15.59708409158643
SHENZHOU-20 (SZ-20)     
1 63632U 25082A   25360.22743832  .00019151  00000+0  23602-3 0  9996
2 63632  41.4680 294.7909 0008517 149.5046 210.6289 15.59708409255306
PROGRESS-MS 31          
1 64751U 25146A   25360.53473604  .00013978  00000+0  25382-3 0  9999
2 64751  51.6320  74.1581 0003230 305.5588  54.5099 15.49844261  6754
TIANZHOU-9              
1 64786U 25149A   25360.22743832  .00019151  00000+0  23602-3 0  9991
2 64786  41.4680 294.7909 0008517 149.5046 210.6289 15.59708409255307
CREW DRAGON 11          
1 65077U 25166A   25360.53473604  .00013978  00000+0  25382-3 0  9993
2 65077  51.6320  74.1581 0003230 305.5588  54.5099 15.49844261  2145
DRAGON CRS-33           
1 65304U 25186A   25360.53473604  .00013978  00000+0  25382-3 0  9998
2 65304  51.6320  74.1581 0003230 305.5588  54.5099 15.49844261   113
PROGRESS-MS 32          
1 65586U 25204A   25360.53473604  .00013978  00000+0  25382-3 0  9991
2 65586  51.6320  74.1581 0003230 305.5588  54.5099 15.49844261   272
